0 COSMOS 2251 DEB
1 35282U 93036AJL 13281.71805597  .00002357  00000-0  72688-3 0  6648
2 35282 074.0925 158.1314 0120874 242.0630 174.9641 14.37830055232646
0 COSMOS 2251 DEB
1 35282U 93036AJL 13284.09697608  .00003397  00000-0  10436-2 0  6652
2 35282 074.0929 153.7650 0120713 237.0912 248.7645 14.37844818232997
0 COSMOS 2251 DEB
1 35282U 93036AJL 13287.29678476  .00003634  00000-0  11158-2 0  6666
2 35282 074.0924 147.8918 0120447 230.3880 251.8475 14.37859756233452
0 COSMOS 2251 DEB
1 35282U 93036AJL 13289.31348646  .00004331  00000-0  13276-2 0  6673
2 35282 074.0919 144.1895 0120334 226.1507 250.9764 14.37877928233748
0 COSMOS 2251 DEB
1 35282U 93036AJL 13292.03391131  .00004250  00000-0  13027-2 0  6688
2 35282 074.0914 139.1967 0120258 220.4368 292.9978 14.37896560234134
0 COSMOS 2251 DEB
1 35282U 93036AJL 13294.25463082  .00005336  00000-0  16329-2 0  6694
2 35282 074.0914 135.1199 0120135 215.7711 268.4915 14.37913461234454
